[
    {
        "Altitude(m)": 624790.7696821216,
        "Argument of Periapsis(deg)": 0.0,
        "Eccentricity": 0.0,
        "Inclination(deg)": 60.0,
        "Latitude(deg)": -59.147038647754755,
        "Longitude(deg)": 86.03465103476753,
        "Mean Anomaly(deg)": -81.8182,
        "RAAN(deg)": 260.0,
        "Satellite Name": "Test1 1161",
        "Satellite Number": 1161,
        "Semi-Major Axis(m)": 6980739.136638005,
        "Time(s)": 0
    },
    {
        "Altitude(m)": 624737.4245096424,
        "Argument of Periapsis(deg)": 0.00010418945913296404,
        "Eccentricity": 0.0,
        "Inclination(deg)": 60.0,
        "Latitude(deg)": -58.99449327639028,
        "Longitude(deg)": 87.1541502969964,
        "Mean Anomaly(deg)": -81.19809385453816,
        "RAAN(deg)": 259.99957995086027,
        "Satellite Name": "Test1 1161",
        "Satellite Number": 1161,
        "Semi-Major Axis(m)": 6980739.136638005,
        "Time(s)": 10
    }
]